DELTA 1 R/B             
1 20323U 89089B   25302.49160591  .00000440  00000+0  11767-3 0  9993
2 20323  97.0803 165.7326 0069223 175.9568 184.2204 14.50516761876718
ARIANE 40 R/B           
1 20443U 90005H   25302.40091567  .00000439  00000+0  15367-3 0  9991
2 20443  98.3304   1.8190 0009197 235.8807 124.1509 14.39746601873911
DELTA 2 R/B(1)          
1 20453U 90008B   25302.30400251  .00039090  00000+0  70641-3 0  9999
2 20453  35.6078 306.5890 0118431 134.4515 226.5975 15.41191620905760
COSMOS 2058             
1 20465U 90010A   25302.49769433  .00004296  00000+0  26250-3 0  9992
2 20465  82.4699 176.5451 0011454  63.7817 296.4588 15.09982121922433
SL-14 R/B               
1 20466U 90010B   25302.49667404  .00000636  00000+0  74384-4 0  9994
2 20466  82.5054  30.5892 0020206  16.5216 343.6652 14.83409820909031
SL-14 R/B               
1 20511U 90018B   25302.52332744  .00000564  00000+0  67970-4 0  9996
2 20511  82.5225 345.6955 0016970 158.9822 201.2093 14.81985112903155
HST                     
1 20580U 90037B   25302.43309676  .00009842  00000+0  35036-3 0  9996
2 20580  28.4669 213.8742 0002090  97.3992 262.6840 15.27207635753213
SL-16 R/B               
1 20625U 90046B   25302.49222291  .00000106  00000+0  79265-4 0  9996
2 20625  71.0001 213.4425 0012901 152.2672 207.9141 14.14991847829837
COSMOS 2084             
1 20663U 90055A   25302.51087895  .00004985  00000+0  36155-3 0  9999
2 20663  62.7908  62.6505 0039137 169.4520 190.7411 15.04606931916571
SL-6 R/B(2)             
1 20666U 90055D   25302.52138522  .00002924  00000+0  23205-3 0  9990
2 20666  62.7848 339.6263 0010684 268.3949  91.5926 15.02748669918478
SL-8 R/B                
1 20775U 90078B   25302.45357174  .00019077  00000+0  59009-3 0  9992
2 20775  82.9084   8.8607 0383614  93.8055 270.7102 14.83705546789802
SL-8 R/B                
1 21088U 91006B   25302.45377822  .00000198  00000+0  18323-3 0  9992
2 21088  82.9396 267.6581 0023588  45.3612  73.1734 13.77479903746002
