CCSDS_OMM_VERS = 2.0
CREATION_DATE  = 
ORIGINATOR     = 

OBJECT_NAME    = DELTA 1 R/B
OBJECT_ID      = 1989-089B
CENTER_NAME    = EARTH
REF_FRAME      = TEME
TIME_SYSTEM    = UTC
MEAN_ELEMENT_THEORY = SGP/SGP4

EPOCH          = 2025-10-29T11:47:54.750624
MEAN_MOTION    = 14.50516761
ECCENTRICITY   = .0069223
INCLINATION    = 97.0803
RA_OF_ASC_NODE = 165.7326
ARG_OF_PERICENTER = 175.9568
MEAN_ANOMALY   = 184.2204

EPHEMERIS_TYPE = 0
CLASSIFICATION_TYPE = U
NORAD_CAT_ID   = 20323
ELEMENT_SET_NO = 999
REV_AT_EPOCH   = 87671
BSTAR          = .11767E-3
MEAN_MOTION_DOT = .44E-5
MEAN_MOTION_DDOT = 0

CCSDS_OMM_VERS = 2.0
CREATION_DATE  = 
ORIGINATOR     = 

OBJECT_NAME    = ARIANE 40 R/B
OBJECT_ID      = 1990-005H
CENTER_NAME    = EARTH
REF_FRAME      = TEME
TIME_SYSTEM    = UTC
MEAN_ELEMENT_THEORY = SGP/SGP4

EPOCH          = 2025-10-29T09:37:19.113888
MEAN_MOTION    = 14.39746601
ECCENTRICITY   = .0009197
INCLINATION    = 98.3304
RA_OF_ASC_NODE = 1.8190
ARG_OF_PERICENTER = 235.8807
MEAN_ANOMALY   = 124.1509

EPHEMERIS_TYPE = 0
CLASSIFICATION_TYPE = U
NORAD_CAT_ID   = 20443
ELEMENT_SET_NO = 999
REV_AT_EPOCH   = 87391
BSTAR          = .15367E-3
MEAN_MOTION_DOT = .439E-5
MEAN_MOTION_DDOT = 0

CCSDS_OMM_VERS = 2.0
CREATION_DATE  = 
ORIGINATOR     = 

OBJECT_NAME    = DELTA 2 R/B(1)
OBJECT_ID      = 1990-008B
CENTER_NAME    = EARTH
REF_FRAME      = TEME
TIME_SYSTEM    = UTC
MEAN_ELEMENT_THEORY = SGP/SGP4

EPOCH          = 2025-10-29T07:17:45.816000
MEAN_MOTION    = 15.41191619
ECCENTRICITY   = .0118432
INCLINATION    = 35.6078
RA_OF_ASC_NODE = 306.5890
ARG_OF_PERICENTER = 134.4515
MEAN_ANOMALY   = 226.5975

EPHEMERIS_TYPE = 0
CLASSIFICATION_TYPE = U
NORAD_CAT_ID   = 20453
ELEMENT_SET_NO = 999
REV_AT_EPOCH   = 90576
BSTAR          = .70641E-3
MEAN_MOTION_DOT = .3909E-3
MEAN_MOTION_DDOT = 0

CCSDS_OMM_VERS = 2.0
CREATION_DATE  = 
ORIGINATOR     = 

OBJECT_NAME    = COSMOS 2058
OBJECT_ID      = 1990-010A
CENTER_NAME    = EARTH
REF_FRAME      = TEME
TIME_SYSTEM    = UTC
MEAN_ELEMENT_THEORY = SGP/SGP4

EPOCH          = 2025-10-29T11:56:40.790112
MEAN_MOTION    = 15.09982121
ECCENTRICITY   = .0011454
INCLINATION    = 82.4699
RA_OF_ASC_NODE = 176.5451
ARG_OF_PERICENTER = 63.7817
MEAN_ANOMALY   = 296.4588

EPHEMERIS_TYPE = 0
CLASSIFICATION_TYPE = U
NORAD_CAT_ID   = 20465
ELEMENT_SET_NO = 999
REV_AT_EPOCH   = 92243
BSTAR          = .2625E-3
MEAN_MOTION_DOT = .4296E-4
MEAN_MOTION_DDOT = 0

CCSDS_OMM_VERS = 2.0
CREATION_DATE  = 
ORIGINATOR     = 

OBJECT_NAME    = SL-14 R/B
OBJECT_ID      = 1990-010B
CENTER_NAME    = EARTH
REF_FRAME      = TEME
TIME_SYSTEM    = UTC
MEAN_ELEMENT_THEORY = SGP/SGP4

EPOCH          = 2025-10-29T11:55:12.637056
MEAN_MOTION    = 14.83409820
ECCENTRICITY   = .0020206
INCLINATION    = 82.5054
RA_OF_ASC_NODE = 30.5892
ARG_OF_PERICENTER = 16.5216
MEAN_ANOMALY   = 343.6652

EPHEMERIS_TYPE = 0
CLASSIFICATION_TYPE = U
NORAD_CAT_ID   = 20466
ELEMENT_SET_NO = 999
REV_AT_EPOCH   = 90903
BSTAR          = .74384E-4
MEAN_MOTION_DOT = .636E-5
MEAN_MOTION_DDOT = 0

CCSDS_OMM_VERS = 2.0
CREATION_DATE  = 
ORIGINATOR     = 

OBJECT_NAME    = SL-14 R/B
OBJECT_ID      = 1990-018B
CENTER_NAME    = EARTH
REF_FRAME      = TEME
TIME_SYSTEM    = UTC
MEAN_ELEMENT_THEORY = SGP/SGP4

EPOCH          = 2025-10-29T12:33:35.490816
MEAN_MOTION    = 14.81985112
ECCENTRICITY   = .001697
INCLINATION    = 82.5225
RA_OF_ASC_NODE = 345.6955
ARG_OF_PERICENTER = 158.9822
MEAN_ANOMALY   = 201.2093

EPHEMERIS_TYPE = 0
CLASSIFICATION_TYPE = U
NORAD_CAT_ID   = 20511
ELEMENT_SET_NO = 999
REV_AT_EPOCH   = 90315
BSTAR          = .6797E-4
MEAN_MOTION_DOT = .564E-5
MEAN_MOTION_DDOT = 0

CCSDS_OMM_VERS = 2.0
CREATION_DATE  = 
ORIGINATOR     = 

OBJECT_NAME    = HST
OBJECT_ID      = 1990-037B
CENTER_NAME    = EARTH
REF_FRAME      = TEME
TIME_SYSTEM    = UTC
MEAN_ELEMENT_THEORY = SGP/SGP4

EPOCH          = 2025-10-29T10:23:39.560064
MEAN_MOTION    = 15.27207635
ECCENTRICITY   = .000209
INCLINATION    = 28.4669
RA_OF_ASC_NODE = 213.8742
ARG_OF_PERICENTER = 97.3992
MEAN_ANOMALY   = 262.6840

EPHEMERIS_TYPE = 0
CLASSIFICATION_TYPE = U
NORAD_CAT_ID   = 20580
ELEMENT_SET_NO = 999
REV_AT_EPOCH   = 75321
BSTAR          = .35036E-3
MEAN_MOTION_DOT = .9842E-4
MEAN_MOTION_DDOT = 0

CCSDS_OMM_VERS = 2.0
CREATION_DATE  = 
ORIGINATOR     = 

OBJECT_NAME    = SL-16 R/B
OBJECT_ID      = 1990-046B
CENTER_NAME    = EARTH
REF_FRAME      = TEME
TIME_SYSTEM    = UTC
MEAN_ELEMENT_THEORY = SGP/SGP4

EPOCH          = 2025-10-29T11:48:48.059424
MEAN_MOTION    = 14.14991847
ECCENTRICITY   = .0012901
INCLINATION    = 71.0001
RA_OF_ASC_NODE = 213.4425
ARG_OF_PERICENTER = 152.2672
MEAN_ANOMALY   = 207.9141

EPHEMERIS_TYPE = 0
CLASSIFICATION_TYPE = U
NORAD_CAT_ID   = 20625
ELEMENT_SET_NO = 999
REV_AT_EPOCH   = 82983
BSTAR          = .79265E-4
MEAN_MOTION_DOT = .106E-5
MEAN_MOTION_DDOT = 0

CCSDS_OMM_VERS = 2.0
CREATION_DATE  = 
ORIGINATOR     = 

OBJECT_NAME    = COSMOS 2084
OBJECT_ID      = 1990-055A
CENTER_NAME    = EARTH
REF_FRAME      = TEME
TIME_SYSTEM    = UTC
MEAN_ELEMENT_THEORY = SGP/SGP4

EPOCH          = 2025-10-29T12:15:39.941280
MEAN_MOTION    = 15.04606931
ECCENTRICITY   = .0039137
INCLINATION    = 62.7908
RA_OF_ASC_NODE = 62.6505
ARG_OF_PERICENTER = 169.4520
MEAN_ANOMALY   = 190.7411

EPHEMERIS_TYPE = 0
CLASSIFICATION_TYPE = U
NORAD_CAT_ID   = 20663
ELEMENT_SET_NO = 999
REV_AT_EPOCH   = 91657
BSTAR          = .36155E-3
MEAN_MOTION_DOT = .4985E-4
MEAN_MOTION_DDOT = 0

CCSDS_OMM_VERS = 2.0
CREATION_DATE  = 
ORIGINATOR     = 

OBJECT_NAME    = SL-6 R/B(2)
OBJECT_ID      = 1990-055D
CENTER_NAME    = EARTH
REF_FRAME      = TEME
TIME_SYSTEM    = UTC
MEAN_ELEMENT_THEORY = SGP/SGP4

EPOCH          = 2025-10-29T12:30:47.683008
MEAN_MOTION    = 15.02748669
ECCENTRICITY   = .0010684
INCLINATION    = 62.7848
RA_OF_ASC_NODE = 339.6263
ARG_OF_PERICENTER = 268.3949
MEAN_ANOMALY   = 91.5926

EPHEMERIS_TYPE = 0
CLASSIFICATION_TYPE = U
NORAD_CAT_ID   = 20666
ELEMENT_SET_NO = 999
REV_AT_EPOCH   = 91847
BSTAR          = .23205E-3
MEAN_MOTION_DOT = .2924E-4
MEAN_MOTION_DDOT = 0

CCSDS_OMM_VERS = 2.0
CREATION_DATE  = 
ORIGINATOR     = 

OBJECT_NAME    = SL-8 R/B
OBJECT_ID      = 1990-078B
CENTER_NAME    = EARTH
REF_FRAME      = TEME
TIME_SYSTEM    = UTC
MEAN_ELEMENT_THEORY = SGP/SGP4

EPOCH          = 2025-10-29T10:53:08.598336
MEAN_MOTION    = 14.83705546
ECCENTRICITY   = .0383614
INCLINATION    = 82.9084
RA_OF_ASC_NODE = 8.8607
ARG_OF_PERICENTER = 93.8055
MEAN_ANOMALY   = 270.7102

EPHEMERIS_TYPE = 0
CLASSIFICATION_TYPE = U
NORAD_CAT_ID   = 20775
ELEMENT_SET_NO = 999
REV_AT_EPOCH   = 78980
BSTAR          = .59009E-3
MEAN_MOTION_DOT = .19077E-3
MEAN_MOTION_DDOT = 0

CCSDS_OMM_VERS = 2.0
CREATION_DATE  = 
ORIGINATOR     = 

OBJECT_NAME    = SL-8 R/B
OBJECT_ID      = 1991-006B
CENTER_NAME    = EARTH
REF_FRAME      = TEME
TIME_SYSTEM    = UTC
MEAN_ELEMENT_THEORY = SGP/SGP4

EPOCH          = 2025-10-29T10:53:26.438208
MEAN_MOTION    = 13.77479903
ECCENTRICITY   = .0023588
INCLINATION    = 82.9396
RA_OF_ASC_NODE = 267.6581
ARG_OF_PERICENTER = 45.3612
MEAN_ANOMALY   = 73.1734

EPHEMERIS_TYPE = 0
CLASSIFICATION_TYPE = U
NORAD_CAT_ID   = 21088
ELEMENT_SET_NO = 999
REV_AT_EPOCH   = 74600
BSTAR          = .18323E-3
MEAN_MOTION_DOT = .198E-5
MEAN_MOTION_DDOT = 0

